{
    "links": {
        "self": "http://www.neowsapp.com/rest/v1/neo/54006015?api_key=iIulBulltgU6a56xZRHN4H3l9WmuAYTsLGpBGhQ2"
    },
    "id": "54006015",
    "neo_reference_id": "54006015",
    "name": "(2020 DK4)",
    "designation": "2020 DK4",
    "nasa_jpl_url": "http://ssd.jpl.nasa.gov/sbdb.cgi?sstr=54006015",
    "absolute_magnitude_h": 24.747,
    "estimated_diameter": {
        "kilometers": {
            "estimated_diameter_min": 0.0298644813,
            "estimated_diameter_max": 0.0667790104
        },
        "meters": {
            "estimated_diameter_min": 29.8644813333,
            "estimated_diameter_max": 66.779010374
        },
        "miles": {
            "estimated_diameter_min": 0.0185569226,
            "estimated_diameter_max": 0.0414945405
        },
        "feet": {
            "estimated_diameter_min": 97.9805849374,
            "estimated_diameter_max": 219.0912483953
        }
    },
    "is_potentially_hazardous_asteroid": false,
    "close_approach_data": [
        {
            "close_approach_date": "2020-03-07",
            "close_approach_date_full": "2020-Mar-07 21:38",
            "epoch_date_close_approach": 1583617080000,
            "relative_velocity": {
                "kilometers_per_second": "11.2359470205",
                "kilometers_per_hour": "40449.4092739177",
                "miles_per_hour": "25133.6898902296"
            },
            "miss_distance": {
                "astronomical": "0.1333851861",
                "lunar": "51.8868373929",
                "kilometers": "19954139.730113607",
                "miles": "12398927.4823854966"
            },
            "orbiting_body": "Earth"
        }
    ],
    "orbital_data": {
        "orbit_id": "3",
        "orbit_determination_date": "2020-03-05 05:05:44",
        "first_observation_date": "2020-02-27",
        "last_observation_date": "2020-03-05",
        "data_arc_in_days": 7,
        "observations_used": 35,
        "orbit_uncertainty": "8",
        "minimum_orbit_intersection": ".131343",
        "jupiter_tisserand_invariant": "4.517",
        "epoch_osculation": "2458908.5",
        "eccentricity": ".2459113156953409",
        "semi_major_axis": "1.463566241704423",
        "inclination": "20.70170853263296",
        "ascending_node_longitude": "162.4993918921732",
        "orbital_period": "646.7210579055467",
        "perihelion_distance": "1.103658741599603",
        "perihelion_argument": "26.99127908758819",
        "aphelion_distance": "1.823473741809243",
        "perihelion_time": "2458940.901432397478",
        "mean_anomaly": "341.9636062248097",
        "mean_motion": ".556654210651322",
        "equinox": "J2000",
        "orbit_class": {
            "orbit_class_type": "AMO",
            "orbit_class_description": "Near-Earth asteroid orbits similar to that of 1221 Amor",
            "orbit_class_range": "1.017 AU < q (perihelion) < 1.3 AU"
        }
    },
    "is_sentry_object": false
}